ONEWEB-0710             
1 55173U 23004AK  24045.60508026  .00000065  00000+0  13321-3 0  9995
2 55173  87.9249 175.6608 0001387 104.9236 255.2049 13.17648014 55179
ONEWEB-0711             
1 55174U 23004AL  24045.64356543 -.00000059  00000+0 -20323-3 0  9990
2 55174  87.8998 190.7469 0001596 140.1307 219.9938 13.11418134 53967
ONEWEB-0713             
1 55175U 23004AM  24045.43251745 -.00000404  00000+0 -11756-2 0  9999
2 55175  87.9000 190.7963 0001556 119.3272 240.8011 13.11417787 53921
ONEWEB-0715             
1 55176U 23004AN  24045.42764894 -.00000459  00000+0 -13323-2 0  9995
2 55176  87.9002 190.7974 0001653 113.1043 247.0259 13.11416945 53964
ONEWEB-0716             
1 55177U 23004AP  24045.59876071  .00000116  00000+0  26659-3 0  9990
2 55177  87.9253 175.6515 0001894  98.8164 261.3182 13.17648918 55178
ONEWEB-0717             
1 55178U 23004AQ  24045.42948714 -.00000093  00000+0 -27316-3 0  9994
2 55178  87.9249 175.6508 0001147 146.8205 213.2999 13.17649098 55203
ONEWEB-0719             
1 55179U 23004AR  24045.59242229  .00000097  00000+0  21624-3 0  9999
2 55179  87.9249 175.6053 0001900 112.9838 247.1494 13.17647893 55175
ONEWEB-0530             
1 55796U 23029A   24045.61444539  .00000024  00000+0  26907-4 0  9992
2 55796  87.9142  84.3670 0001834 115.4439 244.6884 13.20769639 48471
